<?xml version='1.0' encoding='UTF-8'?>
<kml xmlns="http://www.opengis.net/kml/2.2">
  <Document>
    <name>Da Lat</name>
    <Style id="s-da-lat-hotels">
      <IconStyle>
        <color>ff909946</color>
        <scale>1.1</scale>
        <Icon>
          <href>http://maps.google.com/mapfiles/kml/shapes/lodging.png</href>
        </Icon>
      </IconStyle>
    </Style>
    <Style id="s-da-lat-must_see">
      <IconStyle>
        <color>ff909946</color>
        <scale>1.1</scale>
        <Icon>
          <href>http://maps.google.com/mapfiles/kml/shapes/star.png</href>
        </Icon>
      </IconStyle>
    </Style>
    <Style id="s-da-lat-attractions">
      <IconStyle>
        <color>ff909946</color>
        <scale>1.1</scale>
        <Icon>
          <href>http://maps.google.com/mapfiles/kml/shapes/hiker.png</href>
        </Icon>
      </IconStyle>
    </Style>
    <Style id="s-da-lat-food">
      <IconStyle>
        <color>ff909946</color>
        <scale>1.1</scale>
        <Icon>
          <href>http://maps.google.com/mapfiles/kml/shapes/dining.png</href>
        </Icon>
      </IconStyle>
    </Style>
    <Style id="s-da-lat-street_food">
      <IconStyle>
        <color>ff909946</color>
        <scale>1.1</scale>
        <Icon>
          <href>http://maps.google.com/mapfiles/kml/shapes/dining.png</href>
        </Icon>
      </IconStyle>
    </Style>
    <Style id="s-da-lat-restaurants">
      <IconStyle>
        <color>ff909946</color>
        <scale>1.1</scale>
        <Icon>
          <href>http://maps.google.com/mapfiles/kml/shapes/dining.png</href>
        </Icon>
      </IconStyle>
    </Style>
    <Style id="s-da-lat-markets">
      <IconStyle>
        <color>ff909946</color>
        <scale>1.1</scale>
        <Icon>
          <href>http://maps.google.com/mapfiles/kml/shapes/shopping.png</href>
        </Icon>
      </IconStyle>
    </Style>
    <Style id="s-da-lat-nightlife">
      <IconStyle>
        <color>ff909946</color>
        <scale>1.1</scale>
        <Icon>
          <href>http://maps.google.com/mapfiles/kml/shapes/bars.png</href>
        </Icon>
      </IconStyle>
    </Style>
    <Style id="s-da-lat-spa">
      <IconStyle>
        <color>ff909946</color>
        <scale>1.1</scale>
        <Icon>
          <href>http://maps.google.com/mapfiles/kml/shapes/parks.png</href>
        </Icon>
      </IconStyle>
    </Style>
    <Style id="s-da-lat-logistics">
      <IconStyle>
        <color>ff909946</color>
        <scale>1.1</scale>
        <Icon>
          <href>http://maps.google.com/mapfiles/kml/shapes/airports.png</href>
        </Icon>
      </IconStyle>
    </Style>
    <Style id="s-da-lat-hotels-t5">
      <IconStyle>
        <color>ff909946</color>
        <scale>1.4</scale>
        <Icon>
          <href>http://maps.google.com/mapfiles/kml/shapes/lodging.png</href>
        </Icon>
      </IconStyle>
    </Style>
    <Style id="s-da-lat-hotels-t4">
      <IconStyle>
        <color>ff909946</color>
        <scale>1.1</scale>
        <Icon>
          <href>http://maps.google.com/mapfiles/kml/shapes/lodging.png</href>
        </Icon>
      </IconStyle>
    </Style>
    <Style id="s-da-lat-hotels-t3">
      <IconStyle>
        <color>ff909946</color>
        <scale>0.9</scale>
        <Icon>
          <href>http://maps.google.com/mapfiles/kml/shapes/lodging.png</href>
        </Icon>
      </IconStyle>
    </Style>
    <Style id="s-da-lat-hotels-avoid">
      <IconStyle>
        <color>ff3d26d7</color>
        <scale>1.1</scale>
        <Icon>
          <href>http://maps.google.com/mapfiles/kml/shapes/caution.png</href>
        </Icon>
      </IconStyle>
    </Style>
    <Style id="place-anchor">
      <IconStyle>
        <color>ff6f2742</color>
        <scale>1.2</scale>
        <Icon>
          <href>http://maps.google.com/mapfiles/kml/shapes/placemark_circle.png</href>
        </Icon>
      </IconStyle>
    </Style>
    <Folder>
      <name>Da Lat</name>
      <Placemark>
        <name>Da Lat</name>
        <styleUrl>#place-anchor</styleUrl>
        <description><![CDATA[<b>Da Lat</b><br/>Highlands<br/><a href="https://www.google.com/maps/dir/?api=1&destination=11.9404,108.4583&travelmode=driving" style="color:#0f7c5c;font-weight:700">Directions</a><br/>Coords: 11.9404, 108.4583]]></description>
        <Point>
          <coordinates>108.4583,11.9404,0</coordinates>
        </Point>
      </Placemark>
    </Folder>
    <Folder>
      <name>Hotels</name>
      <Placemark>
        <name>MerPerle Dalat Hotel</name>
        <styleUrl>#s-da-lat-hotels-t5</styleUrl>
        <description><![CDATA[<b>Da Lat</b> &middot; Next to Da Lat golf course<br/>5 stars (self-declared)<br/>$55-$91/night <i>(indicative, checked 2026-08-16)</i><br/><br/>A large new hotel with an indoor pool, spa and its own attached winery, on the edge of downtown next to Da Lat's golf course.<br/><b>Why it's here:</b> The highest-scoring self-declared 5-star in Da Lat, though several guests say it falls short of a true 5-star standard<br/><a href="https://www.tripadvisor.com/Hotel_Review-g293922-d26305215-Reviews-MerPerle_Dalat_Hotel-Da_Lat_Lam_Dong_Province.html">source 1</a> &middot; <a href="https://www.kayak.com/Dalat-Hotels-Merperle-Dalat-Hotel.9967439.ksp">source 2</a><br/><a href="https://www.google.com/maps/dir/?api=1&destination=11.9410283,108.4583231&travelmode=driving" style="color:#0f7c5c;font-weight:700">Directions</a><br/>Coords: 11.9410283, 108.4583231]]></description>
        <Point>
          <coordinates>108.4583231,11.9410283,0</coordinates>
        </Point>
      </Placemark>
      <Placemark>
        <name>Colline Dalat</name>
        <styleUrl>#s-da-lat-hotels-t4</styleUrl>
        <description><![CDATA[<b>Da Lat</b> &middot; Next to Da Lat night market<br/>4 stars<br/>$63-$76/night <i>(indicative, checked 2026-08-16)</i><br/><br/>A 150-room modern hotel built directly onto the steps down to Da Lat's night market, with a rooftop restaurant looking over the town.<br/><b>Why it's here:</b> Officially 4-star and zero steps from the night market; the master-spec's top pick for Da Lat<br/><a href="https://www.tripadvisor.com/Hotel_Review-g293922-d16731336-Reviews-Colline-Da_Lat_Lam_Dong_Province.html">source 1</a> &middot; <a href="https://us.trip.com/hotels/dalat-hotel-detail-29515862/colline-dalat/">source 2</a><br/><a href="https://www.google.com/maps/dir/?api=1&destination=11.94397,108.438126&travelmode=driving" style="color:#0f7c5c;font-weight:700">Directions</a><br/>Coords: 11.94397, 108.438126]]></description>
        <Point>
          <coordinates>108.438126,11.94397,0</coordinates>
        </Point>
      </Placemark>
      <Placemark>
        <name>Terracotta Hotel &amp; Resort Dalat</name>
        <styleUrl>#s-da-lat-hotels-t4</styleUrl>
        <description><![CDATA[<b>Da Lat</b> &middot; Lakeside, near Da Lat golf course<br/><i>Approximate location — search the name in Maps</i><br/>4 stars (self-declared)<br/>$44-$53/night <i>(indicative, checked 2026-08-16)</i><br/><br/>A spa hotel on the shore of a small private lake, with two restaurants, bike rental and an adjoining golf course.<br/><b>Why it's here:</b> A genuine lakeside 4-star property at close to 3-star prices<br/><a href="https://www.momondo.com/hotels/da-lat/Terracotta-Hotel-Resort-Dalat.mhd2272019.ksp">source 1</a> &middot; <a href="https://www.makemytrip.com/hotels-international/en-us/vietnam/dalat-hotels/terracotta_hotel_resort_dalat-details.html">source 2</a><br/><a href="https://www.google.com/maps/dir/?api=1&destination=11.894725,108.4397193&travelmode=driving" style="color:#0f7c5c;font-weight:700">Directions</a><br/>Coords: 11.894725, 108.4397193]]></description>
        <Point>
          <coordinates>108.4397193,11.894725,0</coordinates>
        </Point>
      </Placemark>
    </Folder>
    <Folder>
      <name>Must-see</name>
      <Placemark>
        <name>Crazy House (Hang Nga Guesthouse)</name>
        <styleUrl>#s-da-lat-must_see</styleUrl>
        <description><![CDATA[<b>Da Lat</b> &middot; Huynh Thuc Khang Street<br/><i>Approximate location — search the name in Maps</i><br/><br/>A surreal building shaped like a giant banyan tree, designed by architect Dang Viet Nga with tunnel staircases, mushroom-shaped rooms and almost no straight lines anywhere.<br/><b>Why it's here:</b> Unlike anything else built in Vietnam, and walkable from the city centre<br/><a href="https://www.cnn.com/travel/article/crazy-house-dalat-vietnam">source 1</a> &middot; <a href="https://vinwonders.com/en/wonderpedia/news/dalat-crazy-house/">source 2</a><br/><a href="https://www.youtube.com/results?search_query=Crazy+House+%28Hang+Nga+Guesthouse%29+Da+Lat+Vietnam" style="color:#cc0000;font-weight:700">Search YouTube</a><br/><a href="https://www.google.com/maps/dir/?api=1&destination=11.9345622,108.4305116&travelmode=driving" style="color:#0f7c5c;font-weight:700">Directions</a><br/>Coords: 11.9345622, 108.4305116]]></description>
        <Point>
          <coordinates>108.4305116,11.9345622,0</coordinates>
        </Point>
      </Placemark>
      <Placemark>
        <name>Langbiang Mountain</name>
        <styleUrl>#s-da-lat-must_see</styleUrl>
        <description><![CDATA[<b>Da Lat</b> &middot; Lac Duong, ~12km north of the city<br/><br/>A 2,167m twin-peaked mountain reached by a bumpy 4.5km jeep track from its base, with panoramic views over Da Lat's pine forests and valleys from the summit.<br/><b>Why it's here:</b> The best viewpoint over the whole Da Lat plateau, and an easy half-day trip<br/><a href="https://vinwonders.com/en/wonderpedia/news/lang-biang-mountain-dalat/">source 1</a> &middot; <a href="https://localvietnam.com/blog/langbiang-mountain/">source 2</a><br/><a href="https://www.youtube.com/results?search_query=Langbiang+Mountain+Da+Lat+Vietnam" style="color:#cc0000;font-weight:700">Search YouTube</a><br/><a href="https://www.google.com/maps/dir/?api=1&destination=12.0472573,108.4405826&travelmode=driving" style="color:#0f7c5c;font-weight:700">Directions</a><br/>Coords: 12.0472573, 108.4405826]]></description>
        <Point>
          <coordinates>108.4405826,12.0472573,0</coordinates>
        </Point>
      </Placemark>
      <Placemark>
        <name>Xuan Huong Lake</name>
        <styleUrl>#s-da-lat-must_see</styleUrl>
        <description><![CDATA[<b>Da Lat</b> &middot; City center<br/><br/>A 40-hectare artificial lake built by French colonists in 1919 at the centre of Da Lat, ringed by a walking path, pine trees and the old golf course.<br/><b>Why it's here:</b> Da Lat organises itself around this lake the way Hanoi organises itself around Hoan Kiem<br/><a href="https://vinwonders.com/en/wonderpedia/news/xuan-huong-lake-dalat/">source 1</a> &middot; <a href="https://www.tripadvisor.com/Attraction_Review-g293922-d451022-Reviews-Xuan_Huong_Lake-Da_Lat_Lam_Dong_Province.html">source 2</a><br/><a href="https://www.youtube.com/results?search_query=Xuan+Huong+Lake+Da+Lat+Vietnam" style="color:#cc0000;font-weight:700">Search YouTube</a><br/><a href="https://www.google.com/maps/dir/?api=1&destination=11.9450803,108.4487222&travelmode=driving" style="color:#0f7c5c;font-weight:700">Directions</a><br/>Coords: 11.9450803, 108.4487222]]></description>
        <Point>
          <coordinates>108.4487222,11.9450803,0</coordinates>
        </Point>
      </Placemark>
    </Folder>
    <Folder>
      <name>Attractions &amp; Experiences</name>
      <Placemark>
        <name>Datanla Waterfall Canyoning</name>
        <styleUrl>#s-da-lat-attractions</styleUrl>
        <description><![CDATA[<b>Da Lat</b> &middot; 7km south of the city<br/><br/>A guided descent through the Datanla waterfall gorge from a base camp at the falls: rappelling down cliffs and a 30m waterfall, a zipline, a water slide and a narrow rock chute nicknamed the 'washing machine'.<br/><b>Why it's here:</b> Da Lat's real adventure-sport claim, and one of the few canyoning operations anywhere in Vietnam<br/><a href="https://tinggly.com/experience/canyoning-2400m-alpine-coaster-activity-in-dalat/141620P6">source 1</a> &middot; <a href="https://www.tripadvisor.com/AttractionProductReview-g293922-d27116487-Canyoning_2400m_Alpine_Coaster_Activity_in_Dalat-Da_Lat_Lam_Dong_Province.html">source 2</a><br/><a href="https://www.youtube.com/results?search_query=Datanla+Waterfall+Canyoning+Da+Lat+Vietnam" style="color:#cc0000;font-weight:700">Search YouTube</a><br/><a href="https://www.google.com/maps/dir/?api=1&destination=11.9011774,108.4488444&travelmode=driving" style="color:#0f7c5c;font-weight:700">Directions</a><br/>Coords: 11.9011774, 108.4488444]]></description>
        <Point>
          <coordinates>108.4488444,11.9011774,0</coordinates>
        </Point>
      </Placemark>
      <Placemark>
        <name>Tuyen Lam Lake SUP/Kayak and Clay Tunnel</name>
        <styleUrl>#s-da-lat-attractions</styleUrl>
        <description><![CDATA[<b>Da Lat</b> &middot; Tuyen Lam Lake, south of the city<br/><br/>A paddle by kayak or stand-up paddleboard across Tuyen Lam Lake's pine-fringed water, usually combined with a stop at the Clay Tunnel, a walk-through open-air clay sculpture near the Truc Lam monastery.<br/><b>Why it's here:</b> The quiet, uncrowded counterpart to the night market; nature and folk art in one outing<br/><a href="https://powertraveller.com/da-lat-tuyen-lam-lake-kayak-or-sup-tour/">source 1</a> &middot; <a href="https://kayawanderlust.com/self-guided-tour-to-the-clay-tunnel-and-truc-lam-monastery/">source 2</a><br/><a href="https://www.youtube.com/results?search_query=Tuyen+Lam+Lake+SUP%2FKayak+and+Clay+Tunnel+Da+Lat+Vietnam" style="color:#cc0000;font-weight:700">Search YouTube</a><br/><a href="https://www.google.com/maps/dir/?api=1&destination=11.8907954,108.4250836&travelmode=driving" style="color:#0f7c5c;font-weight:700">Directions</a><br/>Coords: 11.8907954, 108.4250836]]></description>
        <Point>
          <coordinates>108.4250836,11.8907954,0</coordinates>
        </Point>
      </Placemark>
    </Folder>
    <Folder>
      <name>Markets &amp; Shopping</name>
      <Placemark>
        <name>Da Lat Market (Cho Da Lat)</name>
        <styleUrl>#s-da-lat-markets</styleUrl>
        <description><![CDATA[<b>Da Lat</b> &middot; City center, beside Xuan Huong Lake<br/><br/>The city's main covered market building on a hillside above Xuan Huong Lake, selling fresh produce, dried flowers, hot street food and Da Lat's own coffee and wine.<br/><b>Why it's here:</b> The daytime anchor of Da Lat's market district, a few steps from the lake<br/><a href="https://en.wikipedia.org/wiki/Da_Lat_Market">source 1</a> &middot; <a href="https://vinwonders.com/en/wonderpedia/news/dalat-market/">source 2</a><br/><a href="https://www.google.com/maps/dir/?api=1&destination=11.9435196,108.4372097&travelmode=driving" style="color:#0f7c5c;font-weight:700">Directions</a><br/>Coords: 11.9435196, 108.4372097]]></description>
        <Point>
          <coordinates>108.4372097,11.9435196,0</coordinates>
        </Point>
      </Placemark>
      <Placemark>
        <name>Da Lat Night Market (Cho Am Phu)</name>
        <styleUrl>#s-da-lat-markets</styleUrl>
        <description><![CDATA[<b>Da Lat</b> &middot; Steps below Da Lat Market, city center<br/><i>Approximate location — search the name in Maps</i><br/><br/>The streets and steps below the market building come alive after 5pm with food stalls, grilled rice paper, hot soy milk and fresh strawberries, plus clothing and souvenir stalls.<br/><b>Why it's here:</b> Da Lat's evening centre of gravity, and where most of the specialty street food listed here is actually eaten<br/><a href="https://vinpearl.com/en/da-lat-night-market">source 1</a> &middot; <a href="https://www.vietnamtourism.org.vn/travel-guide/destination-in-vietnam/da-lat%E2%80%99s-night-market.html">source 2</a><br/><a href="https://www.google.com/maps/dir/?api=1&destination=11.9414964,108.4372724&travelmode=driving" style="color:#0f7c5c;font-weight:700">Directions</a><br/>Coords: 11.9414964, 108.4372724]]></description>
        <Point>
          <coordinates>108.4372724,11.9414964,0</coordinates>
        </Point>
      </Placemark>
    </Folder>
  </Document>
</kml>
